BEEAGLESAT              
1 42736U 98067MR  17173.54896885  .00010031  00000-0  15216-3 0  9997
2 42736  51.6405  11.4120 0007940 324.4259  35.6202 15.55252462  4237
ATLANTIS                
1 42737U 98067MS  17173.54442347  .00019710  00000-0  28600-3 0  9992
2 42737  51.6403  11.3814 0008146 319.1708  40.8673 15.55795718  4128
LEMUR-2-ANGELA          
1 42752U 17019B   17173.55287120  .00001946  00000-0  84465-4 0  9998
2 42752  51.6438  14.3925 0011026   4.9107 355.1978 15.27386857  2118
LEMUR-2-JENNYBARNA      
1 42753U 17019C   17173.55280466  .00003196  00000-0  13020-3 0  9992
2 42753  51.6431  14.3920 0010964   4.7718 355.3364 15.27411947  2067
LEMUR-2-ROBMOORE        
1 42754U 17019D   17173.55343406  .00002027  00000-0  87599-4 0  9992
2 42754  51.6430  14.3958 0011057   7.5065 352.6078 15.27316638  2094
LEMUR-2-SPIROVISION     
1 42755U 17019E   17173.48791788  .00002881  00000-0  11892-3 0  9995
2 42755  51.6429  14.7085 0011017   7.1153 352.9980 15.27334704  1973
